NOAA 15                 
1 25338U 98030A   25141.59907129  .00000202  00000+0  10046-3 0  9993
2 25338  98.5361 167.1862 0011284  59.3146 300.9145 14.26968381405447
DMSP 5D-3 F16 (USA 172) 
1 28054U 03048A   25141.62917953  .00000040  00000+0  44630-4 0  9993
2 28054  99.0134 157.2932 0007396 166.4453 301.6749 14.14351654114134
NOAA 18                 
1 28654U 05018A   25141.58210020  .00000193  00000+0  12575-3 0  9995
2 28654  98.8421 221.2715 0014364 178.8844 181.2363 14.13600868 30988
METEOSAT-9 (MSG-2)      
1 28912U 05049B   25140.87375091  .00000135  00000+0  00000+0 0  9999
2 28912   8.4659  57.8993 0001832   1.4536 179.6318  1.00271583  3072
EWS-G1 (GOES 13)        
1 29155U 06018A   25140.30235557 -.00000202  00000+0  00000+0 0  9992
2 29155   3.5094  81.2213 0062900 265.8522 347.4087  0.98811346 39363
DMSP 5D-3 F17 (USA 191) 
1 29522U 06050A   25141.54755817  .00000085  00000+0  66551-4 0  9995
2 29522  98.7389 151.1568 0011340  93.7265 266.5205 14.14830810957034
FENGYUN 3A              
1 32958U 08026A   25141.56398224  .00000109  00000+0  72380-4 0  9998
2 32958  98.6471  85.7415 0008758 169.1145 191.0223 14.19439081879843
NOAA 19                 
1 33591U 09005A   25141.58548319  .00000170  00000+0  11458-3 0  9990
2 33591  98.9979 206.1825 0014620  60.5327 299.7301 14.13364484839160
GOES 14                 
1 35491U 09033A   25141.49617553 -.00000057  00000+0  00000+0 0  9991
2 35491   0.6661  88.2939 0001489  46.4819 174.8621  1.00271649  2669
DMSP 5D-3 F18 (USA 210) 
1 35951U 09057A   25141.54869401  .00000276  00000+0  16658-3 0  9997
2 35951  98.8585 119.2796 0009958 286.9206  73.0875 14.14619780804213
EWS-G2 (GOES 15)        
1 36411U 10008A   25141.60216014  .00000046  00000+0  00000+0 0  9995
2 36411   0.2604  85.8592 0001426 121.6488 310.3819  1.00266602 55715
COMS 1                  
1 36744U 10032A   25141.52769021 -.00000334  00000+0  00000+0 0  9994
2 36744   3.8049  80.2660 0000937 345.8618 131.3906  1.00270291 47169
FENGYUN 3B              
1 37214U 10059A   25141.58740500  .00000065  00000+0  57372-4 0  9992
2 37214  99.0140 179.7863 0021546 213.5175 258.2037 14.14725392752093
SUOMI NPP               
1 37849U 11061A   25141.58117190  .00000090  00000+0  63367-4 0  9992
2 37849  98.7572  81.0590 0002030  42.2232 317.9100 14.19533351702885
METEOSAT-10 (MSG-3)     
1 38552U 12035B   25140.09052174  .00000003  00000+0  00000+0 0  9995
2 38552   3.7421  62.0643 0000755  14.4507 194.1217  1.00270190 46916
METOP-B                 
1 38771U 12049A   25141.60357005  .00000107  00000+0  68198-4 0  9994
2 38771  98.5780 196.3530 0001930  80.7552 279.3844 14.21496353657634
INSAT-3D                
1 39216U 13038B   25141.53018023 -.00000329  00000+0  00000+0 0  9994
2 39216   0.9125  87.8509 0000808 307.3503 164.6884  1.00272076 43159
FENGYUN 3C              
1 39260U 13052A   25141.56445104  .00000107  00000+0  75336-4 0  9998
2 39260  98.4538 129.5213 0015903  72.5037 287.7875 14.15621668603221
METEOR-M 2              
1 40069U 14037A   25141.54246303  .00000121  00000+0  74751-4 0  9995
2 40069  98.4672 127.2646 0007001  93.7455 266.4524 14.21291535563686
HIMAWARI-8              
1 40267U 14060A   25141.60615692 -.00000267  00000+0  00000+0 0  9992
2 40267   0.0481 103.4161 0000387 317.6529 177.3251  1.00270840 38820
FENGYUN 2G              
1 40367U 14090A   25141.39538167 -.00000288  00000+0  00000+0 0  9996
2 40367   4.6461  77.5736 0003097 126.4127 276.8939  1.00266503 38075
METEOSAT-11 (MSG-4)     
1 40732U 15034A   25141.59173449  .00000072  00000+0  00000+0 0  9991
2 40732   2.2239  72.3343 0001256 290.3689  99.0093  1.00272118  3295
ELEKTRO-L 2             
1 41105U 15074A   25141.58695608 -.00000106  00000+0  00000+0 0  9994
2 41105   5.7049  75.3482 0001427 231.6009 129.3461  1.00270584 34585
INSAT-3DR               
1 41752U 16054A   25141.43864289 -.00000068  00000+0  00000+0 0  9995
2 41752   0.1271  91.8591 0010273 180.9466 198.4476  1.00271167 31897
HIMAWARI-9              
1 41836U 16064A   25141.60615693 -.00000266  00000+0  00000+0 0  9991
2 41836   0.0125 225.8878 0001176 204.9324 167.6553  1.00270910 31288
GOES 16                 
1 41866U 16071A   25141.57078733 -.00000113  00000+0  00000+0 0  9997
2 41866   0.0545 262.8144 0001462 218.4940 227.2903  1.00124980 31171
FENGYUN 4A              
1 41882U 16077A   25141.59304770 -.00000348  00000+0  00000+0 0  9996
2 41882   1.3232  84.4828 0007299 164.7531 327.3777  1.00268264 31003
CYGFM05                 
1 41884U 16078A   25141.53416099  .00012395  00000+0  30048-3 0  9994
2 41884  34.9615 298.5875 0009460  65.5005 294.6700 15.40170381468049
CYGFM04                 
1 41885U 16078B   25141.58372238  .00013511  00000+0  30758-3 0  9995
2 41885  34.9360 277.7868 0008571  90.1010 270.0691 15.42049055468187
CYGFM02                 
1 41886U 16078C   25141.53430376  .00014084  00000+0  31178-3 0  9992
2 41886  34.9450 278.5219 0010341  83.3473 276.8423 15.42858568468287
CYGFM01                 
1 41887U 16078D   25141.59053352  .00012292  00000+0  29428-3 0  9998
2 41887  34.9447 301.8172 0009227  52.6669 307.4890 15.40547752467982
CYGFM08                 
1 41888U 16078E   25141.58723026  .00013425  00000+0  31175-3 0  9991
2 41888  34.9471 286.8249 0010800  78.8639 281.3294 15.41435751468191
CYGFM07                 
1 41890U 16078G   25141.53780977  .00013678  00000+0  31194-3 0  9998
2 41890  34.9490 277.2757 0008905  96.1421 264.0314 15.41992054468193
CYGFM03                 
1 41891U 16078H   25141.54040985  .00013445  00000+0  30903-3 0  9997
2 41891  34.9444 278.8422 0008016  80.1395 280.0230 15.41768606468172
FENGYUN 3D              
1 43010U 17072A   25141.57259430  .00000093  00000+0  65523-4 0  9999
2 43010  98.9611 105.1645 0002637  87.8435 272.3043 14.19624645389428
NOAA 20 (JPSS-1)        
1 43013U 17073A   25141.59673377  .00000065  00000+0  51869-4 0  9992
2 43013  98.7411  80.4179 0001443  36.6520 323.4755 14.19538487388914
GOES 17                 
1 43226U 18022A   25141.38864229 -.00000083  00000+0  00000+0 0  9995
2 43226   0.0023  89.5150 0002897  11.2203 174.0506  1.00271272 26493
FENGYUN 2H              
1 43491U 18050A   25140.96641865 -.00000119  00000+0  00000+0 0  9992
2 43491   2.0198  83.7121 0000548 102.3830 119.9520  1.00269274 25509
METOP-C                 
1 43689U 18087A   25141.56911353  .00000101  00000+0  66255-4 0  9999
2 43689  98.7164 202.1396 0001063 157.7602 202.3621 14.21479477339195
GEO-KOMPSAT-2A          
1 43823U 18100A   25141.46928756 -.00000335  00000+0  00000+0 0  9990
2 43823   0.0144  84.3597 0002108 352.4676  99.7208  1.00266870 23708
METEOR-M2 2             
1 44387U 19038A   25141.52914936  .00000109  00000+0  66968-4 0  9997
2 44387  98.8735 119.0241 0002360  76.3363 283.8078 14.24203264305546
ARKTIKA-M 1             
1 47719U 21016A   25141.21261190  .00000115  00000+0  00000+0 0  9998
2 47719  63.1474 111.1314 7096407 268.6011  16.6894  2.00599649 30926
FENGYUN 3E              
1 49008U 21062A   25141.61004491  .00000017  00000+0  28555-4 0  9996
2 49008  98.7419 144.5694 0002538 117.4248 242.7186 14.19864627201011
GOES 18                 
1 51850U 22021A   25141.56270744  .00000106  00000+0  00000+0 0  9999
2 51850   0.0043 124.2775 0000266  13.6345 167.1183  1.00270791  2660
NOAA 21 (JPSS-2)        
1 54234U 22150A   25141.56254888  .00000084  00000+0  60568-4 0  9997
2 54234  98.7266  80.7118 0000941 183.6186 176.4984 14.19533169130982
METEOSAT-12 (MTG-I1)    
1 54743U 22170C   25140.59038620  .00000003  00000+0  00000+0 0  9991
2 54743   0.6745  38.3959 0000790  17.5953  34.8044  1.00275043  9048
TIANMU-1 03             
1 55973U 23039A   25141.59670853  .00010518  00000+0  31330-3 0  9999
2 55973  97.4990 299.8178 0005163  77.4260 282.7560 15.34867741120542
TIANMU-1 04             
1 55974U 23039B   25141.61216247  .00010146  00000+0  30010-3 0  9997
2 55974  97.4918 299.1343 0005853  72.5594 287.6288 15.35096983120546
TIANMU-1 05             
1 55975U 23039C   25141.63132763  .00010259  00000+0  30589-3 0  9996
2 55975  97.4965 299.6115 0005022  94.4850 265.6967 15.34844381120538
TIANMU-1 06             
1 55976U 23039D   25141.49339389  .00010364  00000+0  30576-3 0  9997
2 55976  97.4978 299.7840 0005478  90.1016 270.0855 15.35174791120528
METEOR-M2 3             
1 57166U 23091A   25141.59081097 -.00000005  00000+0  16655-4 0  9994
2 57166  98.6622 198.3569 0003243 213.7192 146.3781 14.23998254 98787
TIANMU-1 07             
1 57399U 23101A   25141.57821991  .00005408  00000+0  22028-3 0  9998
2 57399  97.3122 196.0976 0006108  88.5246 271.6692 15.24875706101869
TIANMU-1 08             
1 57400U 23101B   25141.61011270  .00005294  00000+0  21557-3 0  9996
2 57400  97.3110 195.9592 0008168  90.5208 269.6966 15.24880642101866
TIANMU-1 09             
1 57401U 23101C   25141.59281749  .00005284  00000+0  21567-3 0  9994
2 57401  97.3066 195.5850 0007343  90.5233 269.6846 15.24808587101867
TIANMU-1 10             
1 57402U 23101D   25141.55962118  .00005828  68330-8  23522-3 0  9993
2 57402  97.3146 196.1866 0009251  90.0298 270.2000 15.24790689101859
FENGYUN 3F              
1 57490U 23111A   25141.60509848  .00000053  00000+0  45528-4 0  9991
2 57490  98.7273 212.9235 0001342 134.2432 225.8855 14.20040744 93290
ARKTIKA-M 2             
1 58584U 23198A   25141.45112726  .00000223  00000+0  00000+0 0  9999
2 58584  63.2284 197.2972 6875570 268.9214  18.4441  2.00610924 10461
TIANMU-1 11             
1 58645U 23205A   25141.56527968  .00004375  00000+0  19507-3 0  9994
2 58645  97.3736 165.0119 0008272 310.8399  49.2119 15.21898840 77860
TIANMU-1 12             
1 58646U 23205B   25141.58109309  .00004450  00000+0  19884-3 0  9994
2 58646  97.3722 164.8941 0006128 297.7609  62.3006 15.21827978 77855
TIANMU-1 13             
1 58647U 23205C   25141.61349375  .00004990  00000+0  22278-3 0  9998
2 58647  97.3751 165.0517 0006108 269.6421  90.4115 15.21801368 77856
TIANMU-1 14             
1 58648U 23205D   25141.59703706  .00004672  00000+0  20860-3 0  9990
2 58648  97.3679 164.5740 0007151 276.6938  83.3485 15.21823883 77855
TIANMU-1 19             
1 58660U 23208A   25141.56704522  .00006350  00000+0  26612-3 0  9997
2 58660  97.4253 253.9256 0004351 252.4321 107.6441 15.23864117 77545
TIANMU-1 20             
1 58661U 23208B   25141.58359390  .00006771  00000+0  27351-3 0  9997
2 58661  97.4189 254.1892 0006698 268.2093  91.8378 15.25065784 77593
TIANMU-1 21             
1 58662U 23208C   25141.54194614  .00007662  00000+0  29219-3 0  9995
2 58662  97.4232 255.2665 0006338 265.2660  94.7855 15.26950948 77645
TIANMU-1 22             
1 58663U 23208D   25141.55362985  .00005889  00000+0  24703-3 0  9997
2 58663  97.4248 254.0168 0002706 286.2971  73.7969 15.23866142 77553
TIANMU-1 15             
1 58700U 24004A   25141.59326347  .00005082  00000+0  22751-3 0  9996
2 58700  97.4660 324.2835 0005241 295.0181  65.0510 15.21708324 76125
TIANMU-1 16             
1 58701U 24004B   25141.57826089  .00005190  00000+0  23202-3 0  9995
2 58701  97.4593 323.8306 0005640 301.7844  58.2842 15.21747342 76128
TIANMU-1 17             
1 58702U 24004C   25141.56676910  .00004955  00000+0  22067-3 0  9997
2 58702  97.4631 324.1225 0004301 305.1625  54.9207 15.21908427 76114
TIANMU-1 18             
1 58703U 24004D   25141.61356668  .00004613  00000+0  20617-3 0  9999
2 58703  97.4649 324.3213 0004003 289.1742  70.9060 15.21822371 76122
INSAT-3DS               
1 58990U 24033A   25141.16294747 -.00000147  00000+0  00000+0 0  9997
2 58990   0.0389 263.7590 0001283 153.3086 322.7250  1.00272169 43135
METEOR-M2 4             
1 59051U 24039A   25141.58066419  .00000023  00000+0  29634-4 0  9992
2 59051  98.6483 102.0723 0006240 216.7050 143.3701 14.22365219 63595
GOES 19                 
1 60133U 24119A   25141.57469694 -.00000239  00000+0  00000+0 0  9996
2 60133   0.0469 111.1289 0000263 335.0338 284.9823  1.00273077  3032
